{
  "type": "FeatureCollection",
  "features": [
    {
      "type": "Feature",
      "properties": {
        "norad_id": 41877,
        "name": "RESOURCESAT-2A",
        "group": "resource",
        "lat": 21.02422929176408,
        "lon": 53.15373408477219,
        "alt_km": 820.2574041469579,
        "timestamp": "2025-12-12T16:50:32.805022+00:00",
        "meta_object_name": "RESOURCESAT-2A",
        "meta_object_id": "2016-074A",
        "meta_epoch": "2025-12-12T08:17:47.967648",
        "meta_mean_motion": 14.21598442,
        "meta_eccentricity": 0.00011369,
        "meta_inclination": 98.7751,
        "meta_ra_of_asc_node": 56.2033,
        "meta_arg_of_pericenter": 257.5022,
        "meta_mean_anomaly": 102.6028,
        "meta_ephemeris_type": 0,
        "meta_classification_type": "U",
        "meta_norad_cat_id": 41877,
        "meta_element_set_no": 999,
        "meta_rev_at_epoch": 46775,
        "meta_bstar": 5.2062403e-05,
        "meta_mean_motion_dot": 7e-07,
        "meta_mean_motion_ddot": 0,
        "tle_line1": "1 41877U 16074A   25346.34569407  .00000070  00000+0  52062-4 0  9998",
        "tle_line2": "2 41877  98.7751  56.2033 0001136 257.5022 102.6028 14.21598442467757"
      },
      "geometry": {
        "type": "Point",
        "coordinates": [
          53.15373408477219,
          21.02422929176408
        ]
      }
    },
    {
      "type": "Feature",
      "properties": {
        "norad_id": 41948,
        "name": "CARTOSAT-2D",
        "group": "resource",
        "lat": 14.127642136805637,
        "lon": 42.31479260441697,
        "alt_km": 511.8766677287549,
        "timestamp": "2025-12-12T16:50:32.805033+00:00",
        "meta_object_name": "CARTOSAT-2D",
        "meta_object_id": "2017-008A",
        "meta_epoch": "2025-12-12T07:17:43.772640",
        "meta_mean_motion": 15.19255444,
        "meta_eccentricity": 0.00046564,
        "meta_inclination": 97.4388,
        "meta_ra_of_asc_node": 43.8076,
        "meta_arg_of_pericenter": 164.3463,
        "meta_mean_anomaly": 195.7917,
        "meta_ephemeris_type": 0,
        "meta_classification_type": "U",
        "meta_norad_cat_id": 41948,
        "meta_element_set_no": 999,
        "meta_rev_at_epoch": 48920,
        "meta_bstar": 0.00045048449,
        "meta_mean_motion_dot": 9.436e-05,
        "meta_mean_motion_ddot": 0,
        "tle_line1": "1 41948U 17008A   25346.30397885  .00009436  00000+0  45048-3 0  9990",
        "tle_line2": "2 41948  97.4388  43.8076 0004656 164.3463 195.7917 15.19255444489205"
      },
      "geometry": {
        "type": "Point",
        "coordinates": [
          42.31479260441697,
          14.127642136805637
        ]
      }
    },
    {
      "type": "Feature",
      "properties": {
        "norad_id": 42063,
        "name": "SENTINEL-2B",
        "group": "resource",
        "lat": -11.301167818038847,
        "lon": 60.87471802464692,
        "alt_km": 793.4756300805775,
        "timestamp": "2025-12-12T16:50:32.805043+00:00",
        "meta_object_name": "SENTINEL-2B",
        "meta_object_id": "2017-013A",
        "meta_epoch": "2025-12-12T06:49:32.858112",
        "meta_mean_motion": 14.30815696,
        "meta_eccentricity": 0.00011455,
        "meta_inclination": 98.571,
        "meta_ra_of_asc_node": 58.7362,
        "meta_arg_of_pericenter": 93.2098,
        "meta_mean_anomaly": 266.9216,
        "meta_ephemeris_type": 0,
        "meta_classification_type": "U",
        "meta_norad_cat_id": 42063,
        "meta_element_set_no": 999,
        "meta_rev_at_epoch": 45791,
        "meta_bstar": 0.00010106822,
        "meta_mean_motion_dot": 2.21e-06,
        "meta_mean_motion_ddot": 0,
        "tle_line1": "1 42063U 17013A   25346.28440808  .00000221  00000+0  10107-3 0  9997",
        "tle_line2": "2 42063  98.5710  58.7362 0001145  93.2098 266.9216 14.30815696457911"
      },
      "geometry": {
        "type": "Point",
        "coordinates": [
          60.87471802464692,
          -11.301167818038847
        ]
      }
    },
    {
      "type": "Feature",
      "properties": {
        "norad_id": 42767,
        "name": "CARTOSAT-2E",
        "group": "resource",
        "lat": -73.10242484425311,
        "lon": 69.82430647344637,
        "alt_km": 514.6455839535047,
        "timestamp": "2025-12-12T16:50:32.805053+00:00",
        "meta_object_name": "CARTOSAT-2E",
        "meta_object_id": "2017-036C",
        "meta_epoch": "2025-12-12T07:41:11.383296",
        "meta_mean_motion": 15.1919179,
        "meta_eccentricity": 0.00019691,
        "meta_inclination": 97.4552,
        "meta_ra_of_asc_node": 43.9125,
        "meta_arg_of_pericenter": 240.6244,
        "meta_mean_anomaly": 119.4794,
        "meta_ephemeris_type": 0,
        "meta_classification_type": "U",
        "meta_norad_cat_id": 42767,
        "meta_element_set_no": 999,
        "meta_rev_at_epoch": 46977,
        "meta_bstar": 0.00038856897,
        "meta_mean_motion_dot": 8.111e-05,
        "meta_mean_motion_ddot": 0,
        "tle_line1": "1 42767U 17036C   25346.32027064  .00008111  00000+0  38857-3 0  9991",
        "tle_line2": "2 42767  97.4552  43.9125 0001969 240.6244 119.4794 15.19191790469772"
      },
      "geometry": {
        "type": "Point",
        "coordinates": [
          69.82430647344637,
          -73.10242484425311
        ]
      }
    },
    {
      "type": "Feature",
      "properties": {
        "norad_id": 42920,
        "name": "FORMOSAT-5",
        "group": "resource",
        "lat": -11.870309680844413,
        "lon": 62.76802169143246,
        "alt_km": 722.4443887186872,
        "timestamp": "2025-12-12T16:50:32.805064+00:00",
        "meta_object_name": "FORMOSAT-5",
        "meta_object_id": "2017-049A",
        "meta_epoch": "2025-12-12T06:58:03.197856",
        "meta_mean_motion": 14.51005185,
        "meta_eccentricity": 0.00099034,
        "meta_inclination": 98.2453,
        "meta_ra_of_asc_node": 60.6182,
        "meta_arg_of_pericenter": 297.044,
        "meta_mean_anomaly": 62.9744,
        "meta_ephemeris_type": 0,
        "meta_classification_type": "U",
        "meta_norad_cat_id": 42920,
        "meta_element_set_no": 999,
        "meta_rev_at_epoch": 43957,
        "meta_bstar": 0.00011604472,
        "meta_mean_motion_dot": 4.15e-06,
        "meta_mean_motion_ddot": 0,
        "tle_line1": "1 42920U 17049A   25346.29031479  .00000415  00000+0  11604-3 0  9997",
        "tle_line2": "2 42920  98.2453  60.6182 0009903 297.0440  62.9744 14.51005185439570"
      },
      "geometry": {
        "type": "Point",
        "coordinates": [
          62.76802169143246,
          -11.870309680844413
        ]
      }
    },
    {
      "type": "Feature",
      "properties": {
        "norad_id": 42969,
        "name": "SENTINEL-5P",
        "group": "resource",
        "lat": 27.378697258264935,
        "lon": -79.30376649266799,
        "alt_km": 825.4655940180483,
        "timestamp": "2025-12-12T16:50:32.805075+00:00",
        "meta_object_name": "SENTINEL-5P",
        "meta_object_id": "2017-064A",
        "meta_epoch": "2025-12-12T06:33:44.029728",
        "meta_mean_motion": 14.19517396,
        "meta_eccentricity": 9.504e-05,
        "meta_inclination": 98.7785,
        "meta_ra_of_asc_node": 284.8617,
        "meta_arg_of_pericenter": 88.773,
        "meta_mean_anomaly": 271.3555,
        "meta_ephemeris_type": 0,
        "meta_classification_type": "U",
        "meta_norad_cat_id": 42969,
        "meta_element_set_no": 999,
        "meta_rev_at_epoch": 42304,
        "meta_bstar": 9.4414653e-05,
        "meta_mean_motion_dot": 1.55e-06,
        "meta_mean_motion_ddot": 0,
        "tle_line1": "1 42969U 17064A   25346.27342627  .00000155  00000+0  94415-4 0  9998",
        "tle_line2": "2 42969  98.7785 284.8617 0000950  88.7730 271.3555 14.19517396423046"
      },
      "geometry": {
        "type": "Point",
        "coordinates": [
          -79.30376649266799,
          27.378697258264935
        ]
      }
    },
    {
      "type": "Feature",
      "properties": {
        "norad_id": 42987,
        "name": "SKYSAT-C11",
        "group": "resource",
        "lat": 55.23867640218938,
        "lon": -44.99353153622367,
        "alt_km": 418.4109387721428,
        "timestamp": "2025-12-12T16:50:32.805085+00:00",
        "meta_object_name": "SKYSAT-C11",
        "meta_object_id": "2017-068A",
        "meta_epoch": "2025-12-12T05:26:40.805088",
        "meta_mean_motion": 15.47412785,
        "meta_eccentricity": 9.576e-05,
        "meta_inclination": 97.414,
        "meta_ra_of_asc_node": 123.7054,
        "meta_arg_of_pericenter": 102.6858,
        "meta_mean_anomaly": 257.4499,
        "meta_ephemeris_type": 0,
        "meta_classification_type": "U",
        "meta_norad_cat_id": 42987,
        "meta_element_set_no": 999,
        "meta_rev_at_epoch": 45423,
        "meta_bstar": 0.00060118187,
        "meta_mean_motion_dot": 0.0003077,
        "meta_mean_motion_ddot": 0,
        "tle_line1": "1 42987U 17068A   25346.22686117  .00030770  00000+0  60118-3 0  9990",
        "tle_line2": "2 42987  97.4140 123.7054 0000957 102.6858 257.4499 15.47412785454232"
      },
      "geometry": {
        "type": "Point",
        "coordinates": [
          -44.99353153622367,
          55.23867640218938
        ]
      }
    }
  ]
}